[{"OBJECT_NAME":"NUSTAR","OBJECT_ID":"2012-031A","EPOCH":"2026-03-10T00:00:02.999808","MEAN_MOTION":15.07728841,"ECCENTRICITY":0.00071224,"INCLINATION":6.0266,"RA_OF_ASC_NODE":57.5732,"ARG_OF_PERICENTER":70.6924,"MEAN_ANOMALY":331.0724,"EPHEMERIS_TYPE":0,"CLASSIFICATION_TYPE":"U","NORAD_CAT_ID":38358,"ELEMENT_SET_NO":999,"REV_AT_EPOCH":130,"BSTAR":0.0011080621,"MEAN_MOTION_DOT":0.00018332,"MEAN_MOTION_DDOT":0},{"OBJECT_NAME":"STARLINK-3534","OBJECT_ID":"2022-029AJ","EPOCH":"2026-03-09T06:22:39.234432","MEAN_MOTION":15.08841795,"ECCENTRICITY":0.00014115,"INCLINATION":53.2177,"RA_OF_ASC_NODE":81.0237,"ARG_OF_PERICENTER":94.5069,"MEAN_ANOMALY":265.6085,"EPHEMERIS_TYPE":0,"CLASSIFICATION_TYPE":"U","NORAD_CAT_ID":52120,"ELEMENT_SET_NO":999,"REV_AT_EPOCH":22073,"BSTAR":-6.091861e-6,"MEAN_MOTION_DOT":-3.85e-6,"MEAN_MOTION_DDOT":0}]
